IXPE                    
1 49954U 21121A   24104.25002315  .00007089  00000+0  52714-3 0  9992
2 49954   0.2280 154.9839 0009800  37.0914 258.1144 14.97218515128149
